GEOEYE 1                
1 33331U 08042A   26197.80087071  .00000162  00000+0  39403-4 0  9994
2 33331  98.1327 271.3779 0003833 341.2160  18.8901 14.64650045954487
GAOFEN-8                
1 40701U 15030A   26197.85188458  .00017659  00000+0  35086-3 0  9995
2 40701  97.6887  33.0246 0009961  90.1161 270.1229 15.46991321616030
GAOFEN-9 01             
1 40894U 15047A   26197.88713655  .00000446  00000+0  60904-4 0  9996
2 40894  97.6264 232.2311 0028347  45.1569 315.1941 14.82936790584593
GAOFEN-4                
1 41194U 15083A   26197.86114506 -.00000345  00000+0  00000+0 0  9993
2 41194   0.4320  83.7427 0004267 125.6776 140.9759  1.00271819 38829
GOES 16                 
1 41866U 16071A   26197.60564999 -.00000102  00000+0  00000+0 0  9995
2 41866   0.4077  85.4567 0000548  90.3097 232.0048  1.00271098 35392
GAOFEN-5 01             
1 43461U 18043A   26197.51873141  .00000127  00000+0  36144-4 0  9990
2 43461  98.4591 169.7245 0002019  29.4276 330.7037 14.60623810435974
GAOFEN-6                
1 43484U 18048A   26197.89081684  .00000386  00000+0  63124-4 0  9999
2 43484  98.0957 260.5965 0012115  76.6754 283.5805 14.76385169437770
GEO-KOMPSAT-2A          
1 43823U 18100A   26197.50912757 -.00000355  00000+0  00000+0 0  9993
2 43823   0.0333 170.8393 0001960 292.0796 142.9462  1.00268212 27923
GAOFEN-3 02             
1 49495U 21109A   26197.88138977 -.00000326  00000+0 -85921-4 0  9991
2 49495  98.4087 205.5566 0001308 256.2484 103.8560 14.42209753244595
GAOFEN-3 03             
1 52200U 22035A   26197.85406183 -.00000185  00000+0 -42965-4 0  9996
2 52200  98.4061 206.0042 0001762  88.0615 272.0777 14.42217643225125
