{
 "generated_at": "2026-07-17T07:16:58Z",
 "sources": [
  {
   "name": "CelesTrak",
   "url": "https://celestrak.org/NORAD/elements/",
   "license": "frei verfügbar; Attribution. Ursprünglich USSPACECOM/Space-Track."
  },
  {
   "name": "GCAT (J. McDowell, planet4589.org)",
   "url": "https://planet4589.org/space/gcat/",
   "license": "CC-BY 4.0"
  }
 ],
 "satellites": [
  {
   "norad": 49495,
   "name": "GAOFEN-3 02",
   "intl": "2021-109A",
   "group": "sar",
   "gcat": {
    "class": "C",
    "category": "IMG-R",
    "owner": "GWHYZ",
    "state": "CN"
   },
   "omm": {
    "OBJECT_NAME": "GAOFEN-3 02",
    "OBJECT_ID": "2021-109A",
    "EPOCH": "2026-07-16T21:09:12.076128",
    "MEAN_MOTION": 14.42209753,
    "ECCENTRICITY": 0.0001308,
    "INCLINATION": 98.4087,
    "RA_OF_ASC_NODE": 205.5566,
    "ARG_OF_PERICENTER": 256.2484,
    "MEAN_ANOMALY": 103.856,
    "EPHEMERIS_TYPE": 0,
    "CLASSIFICATION_TYPE": "U",
    "NORAD_CAT_ID": 49495,
    "ELEMENT_SET_NO": 999,
    "REV_AT_EPOCH": 24459,
    "BSTAR": -0.000085921,
    "MEAN_MOTION_DOT": -0.00000326,
    "MEAN_MOTION_DDOT": 0
   }
  },
  {
   "norad": 52200,
   "name": "GAOFEN-3 03",
   "intl": "2022-035A",
   "group": "sar",
   "gcat": {
    "class": "C",
    "category": "IMG-R",
    "owner": "GWHYZ",
    "state": "CN"
   },
   "omm": {
    "OBJECT_NAME": "GAOFEN-3 03",
    "OBJECT_ID": "2022-035A",
    "EPOCH": "2026-07-16T20:29:50.942112",
    "MEAN_MOTION": 14.42217643,
    "ECCENTRICITY": 0.0001762,
    "INCLINATION": 98.4061,
    "RA_OF_ASC_NODE": 206.0042,
    "ARG_OF_PERICENTER": 88.0615,
    "MEAN_ANOMALY": 272.0777,
    "EPHEMERIS_TYPE": 0,
    "CLASSIFICATION_TYPE": "U",
    "NORAD_CAT_ID": 52200,
    "ELEMENT_SET_NO": 999,
    "REV_AT_EPOCH": 22512,
    "BSTAR": -0.000042965,
    "MEAN_MOTION_DOT": -0.00000185,
    "MEAN_MOTION_DDOT": 0
   }
  },
  {
   "norad": 41194,
   "name": "GAOFEN-4",
   "intl": "2015-083A",
   "group": "resource",
   "gcat": {
    "class": "C",
    "category": "IMG",
    "owner": "CNSAS",
    "state": "CN"
   },
   "omm": {
    "OBJECT_NAME": "GAOFEN-4",
    "OBJECT_ID": "2015-083A",
    "EPOCH": "2026-07-16T20:40:02.933184",
    "MEAN_MOTION": 1.00271819,
    "ECCENTRICITY": 0.0004267,
    "INCLINATION": 0.432,
    "RA_OF_ASC_NODE": 83.7427,
    "ARG_OF_PERICENTER": 125.6776,
    "MEAN_ANOMALY": 140.9759,
    "EPHEMERIS_TYPE": 0,
    "CLASSIFICATION_TYPE": "U",
    "NORAD_CAT_ID": 41194,
    "ELEMENT_SET_NO": 999,
    "REV_AT_EPOCH": 3882,
    "BSTAR": 0,
    "MEAN_MOTION_DOT": -0.00000345,
    "MEAN_MOTION_DDOT": 0
   }
  },
  {
   "norad": 43461,
   "name": "GAOFEN-5 01",
   "intl": "2018-043A",
   "group": "resource",
   "gcat": {
    "class": null,
    "category": null,
    "owner": null,
    "state": null
   },
   "omm": {
    "OBJECT_NAME": "GAOFEN-5 01",
    "OBJECT_ID": "2018-043A",
    "EPOCH": "2026-07-16T12:26:58.393824",
    "MEAN_MOTION": 14.6062381,
    "ECCENTRICITY": 0.0002019,
    "INCLINATION": 98.4591,
    "RA_OF_ASC_NODE": 169.7245,
    "ARG_OF_PERICENTER": 29.4276,
    "MEAN_ANOMALY": 330.7037,
    "EPHEMERIS_TYPE": 0,
    "CLASSIFICATION_TYPE": "U",
    "NORAD_CAT_ID": 43461,
    "ELEMENT_SET_NO": 999,
    "REV_AT_EPOCH": 43597,
    "BSTAR": 0.000036144,
    "MEAN_MOTION_DOT": 0.00000127,
    "MEAN_MOTION_DDOT": 0
   }
  },
  {
   "norad": 43484,
   "name": "GAOFEN-6",
   "intl": "2018-048A",
   "group": "resource",
   "gcat": {
    "class": "C",
    "category": "IMG",
    "owner": "CNSAS",
    "state": "CN"
   },
   "omm": {
    "OBJECT_NAME": "GAOFEN-6",
    "OBJECT_ID": "2018-048A",
    "EPOCH": "2026-07-16T21:22:46.574976",
    "MEAN_MOTION": 14.76385169,
    "ECCENTRICITY": 0.0012115,
    "INCLINATION": 98.0957,
    "RA_OF_ASC_NODE": 260.5965,
    "ARG_OF_PERICENTER": 76.6754,
    "MEAN_ANOMALY": 283.5805,
    "EPHEMERIS_TYPE": 0,
    "CLASSIFICATION_TYPE": "U",
    "NORAD_CAT_ID": 43484,
    "ELEMENT_SET_NO": 999,
    "REV_AT_EPOCH": 43777,
    "BSTAR": 0.000063124,
    "MEAN_MOTION_DOT": 0.00000386,
    "MEAN_MOTION_DDOT": 0
   }
  },
  {
   "norad": 40701,
   "name": "GAOFEN-8",
   "intl": "2015-030A",
   "group": "resource",
   "gcat": {
    "class": "D",
    "category": "IMG",
    "owner": "ZZB",
    "state": "CN"
   },
   "omm": {
    "OBJECT_NAME": "GAOFEN-8",
    "OBJECT_ID": "2015-030A",
    "EPOCH": "2026-07-16T20:26:42.827712",
    "MEAN_MOTION": 15.46991321,
    "ECCENTRICITY": 0.0009961,
    "INCLINATION": 97.6887,
    "RA_OF_ASC_NODE": 33.0246,
    "ARG_OF_PERICENTER": 90.1161,
    "MEAN_ANOMALY": 270.1229,
    "EPHEMERIS_TYPE": 0,
    "CLASSIFICATION_TYPE": "U",
    "NORAD_CAT_ID": 40701,
    "ELEMENT_SET_NO": 999,
    "REV_AT_EPOCH": 61603,
    "BSTAR": 0.00035086,
    "MEAN_MOTION_DOT": 0.00017659,
    "MEAN_MOTION_DDOT": 0
   }
  },
  {
   "norad": 40894,
   "name": "GAOFEN-9 01",
   "intl": "2015-047A",
   "group": "resource",
   "gcat": {
    "class": null,
    "category": null,
    "owner": null,
    "state": null
   },
   "omm": {
    "OBJECT_NAME": "GAOFEN-9 01",
    "OBJECT_ID": "2015-047A",
    "EPOCH": "2026-07-16T21:17:28.597920",
    "MEAN_MOTION": 14.8293679,
    "ECCENTRICITY": 0.0028347,
    "INCLINATION": 97.6264,
    "RA_OF_ASC_NODE": 232.2311,
    "ARG_OF_PERICENTER": 45.1569,
    "MEAN_ANOMALY": 315.1941,
    "EPHEMERIS_TYPE": 0,
    "CLASSIFICATION_TYPE": "U",
    "NORAD_CAT_ID": 40894,
    "ELEMENT_SET_NO": 999,
    "REV_AT_EPOCH": 58459,
    "BSTAR": 0.000060904,
    "MEAN_MOTION_DOT": 0.00000446,
    "MEAN_MOTION_DDOT": 0
   }
  },
  {
   "norad": 43823,
   "name": "GEO-KOMPSAT-2A",
   "intl": "2018-100A",
   "group": "weather",
   "gcat": {
    "class": "C",
    "category": "MET",
    "owner": "KARI",
    "state": "KR"
   },
   "omm": {
    "OBJECT_NAME": "GEO-KOMPSAT-2A",
    "OBJECT_ID": "2018-100A",
    "EPOCH": "2026-07-16T12:13:08.622048",
    "MEAN_MOTION": 1.00268212,
    "ECCENTRICITY": 0.000196,
    "INCLINATION": 0.0333,
    "RA_OF_ASC_NODE": 170.8393,
    "ARG_OF_PERICENTER": 292.0796,
    "MEAN_ANOMALY": 142.9462,
    "EPHEMERIS_TYPE": 0,
    "CLASSIFICATION_TYPE": "U",
    "NORAD_CAT_ID": 43823,
    "ELEMENT_SET_NO": 999,
    "REV_AT_EPOCH": 2792,
    "BSTAR": 0,
    "MEAN_MOTION_DOT": -0.00000355,
    "MEAN_MOTION_DDOT": 0
   }
  },
  {
   "norad": 33331,
   "name": "GEOEYE 1",
   "intl": "2008-042A",
   "group": "resource",
   "gcat": {
    "class": null,
    "category": "IMG",
    "owner": "GEYE",
    "state": "US"
   },
   "omm": {
    "OBJECT_NAME": "GEOEYE 1",
    "OBJECT_ID": "2008-042A",
    "EPOCH": "2026-07-16T19:13:15.229344",
    "MEAN_MOTION": 14.64650045,
    "ECCENTRICITY": 0.0003833,
    "INCLINATION": 98.1327,
    "RA_OF_ASC_NODE": 271.3779,
    "ARG_OF_PERICENTER": 341.216,
    "MEAN_ANOMALY": 18.8901,
    "EPHEMERIS_TYPE": 0,
    "CLASSIFICATION_TYPE": "U",
    "NORAD_CAT_ID": 33331,
    "ELEMENT_SET_NO": 999,
    "REV_AT_EPOCH": 95448,
    "BSTAR": 0.000039403,
    "MEAN_MOTION_DOT": 0.00000162,
    "MEAN_MOTION_DDOT": 0
   }
  },
  {
   "norad": 41866,
   "name": "GOES 16",
   "intl": "2016-071A",
   "group": "weather",
   "gcat": {
    "class": "C",
    "category": "MET",
    "owner": "NOAA",
    "state": "US"
   },
   "omm": {
    "OBJECT_NAME": "GOES 16",
    "OBJECT_ID": "2016-071A",
    "EPOCH": "2026-07-16T14:32:08.159136",
    "MEAN_MOTION": 1.00271098,
    "ECCENTRICITY": 0.0000548,
    "INCLINATION": 0.4077,
    "RA_OF_ASC_NODE": 85.4567,
    "ARG_OF_PERICENTER": 90.3097,
    "MEAN_ANOMALY": 232.0048,
    "EPHEMERIS_TYPE": 0,
    "CLASSIFICATION_TYPE": "U",
    "NORAD_CAT_ID": 41866,
    "ELEMENT_SET_NO": 999,
    "REV_AT_EPOCH": 3539,
    "BSTAR": 0,
    "MEAN_MOTION_DOT": -0.00000102,
    "MEAN_MOTION_DDOT": 0
   }
  }
 ]
}
